     2.100          NAVIGATION                              RINEX VERSION / TYPE
fic2rin                                 12/02/2014 00:47:26 PGM / RUN BY / DATE
                                                            END OF HEADER
14 14 12  1  2  0  0.0  .110659748316D-03 -.363797880709D-11  .000000000000D+00
     .640000000000D+02  .556875000000D+02  .467983779117D-08 -.174960480254D+01
     .305101275444D-05  .780753383879D-02  .487454235554D-05  .515375386238D+04
     .936000000000D+05  .130385160446D-06 -.291289820321D+01  .372529029846D-07
     .968609244292D+00  .288437500000D+03 -.196622624206D+01 -.822498546080D-08
     .159649507186D-09  .100000000000D+01  .182100000000D+04  .000000000000D+00
     .240000000000D+01  .000000000000D+00 -.931322574615D-08  .640000000000D+02
     .864060000000D+05  .400000000000D+01
15 14 12  1  2  0  0.0 -.217692926526D-03 -.227373675443D-11  .000000000000D+00
     .900000000000D+01  .671875000000D+02  .540272504518D-08 -.241914450029D+01
     .330433249474D-05  .690958241466D-02  .530295073986D-05  .515381094360D+04
     .936000000000D+05 -.186264514923D-08 -.303106648484D+01 -.150874257088D-06
     .935242597660D+00  .266562500000D+03  .318212236303D+00 -.857071414750D-08
     .194650965137D-09  .100000000000D+01  .182100000000D+04  .000000000000D+00
     .240000000000D+01  .000000000000D+00 -.102445483208D-07  .900000000000D+01
     .864060000000D+05  .400000000000D+01
16 14 12  1  2  0  0.0 -.176711473614D-03  .295585778076D-11  .000000000000D+00
     .460000000000D+02 -.540625000000D+01  .372051211712D-08 -.650315138704D+00
    -.325962901115D-06  .777621800080D-02  .109672546387D-04  .515370755768D+04
     .936000000000D+05  .193715095520D-06 -.831934883644D+00  .130385160446D-07
     .989489215100D+00  .183062500000D+03  .230578149054D+00 -.774925135885D-08
     .127148153374D-09  .100000000000D+01  .182100000000D+04  .000000000000D+00
     .240000000000D+01  .000000000000D+00 -.102445483208D-07  .460000000000D+02
     .864060000000D+05  .400000000000D+01
17 14 12  1  2  0  0.0 -.140961725265D-03 -.238742359215D-11  .000000000000D+00
     .800000000000D+02  .756250000000D+01  .451518807571D-08 -.156193282799D+01
     .445172190666D-06  .978499802295D-02  .561401247978D-05  .515367473030D+04
     .936000000000D+05  .257045030594D-06  .196851375879D+00  .633299350739D-07
     .970813955464D+00  .277000000000D+03 -.207784402565D+01 -.807140763510D-08
     .248224625266D-09  .100000000000D+01  .182100000000D+04  .000000000000D+00
     .240000000000D+01  .000000000000D+00 -.107102096081D-07  .800000000000D+02
     .864060000000D+05  .400000000000D+01
18 14 12  1  2  0  0.0  .361990649253D-03  .261479726760D-11  .000000000000D+00
     .640000000000D+02  .435625000000D+02  .531414992710D-08 -.809705758581D-01
     .229105353355D-05  .155015254859D-01  .113230198622D-04  .515375010681D+04
     .936000000000D+05 -.145286321640D-06  .223290867827D+01  .268220901489D-06
     .925287352355D+00  .147312500000D+03 -.200291817463D+01 -.863750264380D-08
     .800033324599D-10  .100000000000D+01  .182100000000D+04  .000000000000D+00
     .240000000000D+01  .000000000000D+00 -.111758708954D-07  .640000000000D+02
     .864060000000D+05  .400000000000D+01
19 14 12  1  2  0  0.0 -.490486621857D-03 -.170530256582D-11  .000000000000D+00
     .101000000000D+03  .128125000000D+01  .460412035152D-08 -.241321156873D+01
     .502914190292D-07  .107121284818D-01  .582449138165D-05  .515366593170D+04
     .936000000000D+05  .000000000000D+00  .247025827720D+00 -.130385160446D-06
     .967875081779D+00  .271593750000D+03  .513213601589D+00 -.810712340852D-08
     .339657005220D-09  .100000000000D+01  .182100000000D+04  .000000000000D+00
     .240000000000D+01  .000000000000D+00 -.149011611938D-07  .101000000000D+03
     .864060000000D+05  .400000000000D+01
20 14 12  1  2  0  0.0  .262446701527D-03  .409272615798D-11  .000000000000D+00
     .280000000000D+02  .251875000000D+02  .515271463125D-08  .440714333750D+00
     .117719173431D-05  .627184403129D-02  .118352472782D-04  .515368778419D+04
     .936000000000D+05 -.726431608200D-07  .218003888472D+01 -.186264514923D-08
     .926370352072D+00  .132625000000D+03  .133940373906D+01 -.841856495274D-08
    -.178578867098D-11  .100000000000D+01  .182100000000D+04  .000000000000D+00
     .240000000000D+01  .000000000000D+00 -.838190317154D-08  .280000000000D+02
     .864060000000D+05  .400000000000D+01
21 14 12  1  2  0  0.0 -.397759489715D-03 -.204636307899D-11  .000000000000D+00
     .210000000000D+02 -.501250000000D+02  .544951270836D-08  .888914464661D+00
    -.256113708019D-05  .218033093261D-01  .833533704281D-05  .515365091705D+04
     .936000000000D+05 -.314787030220D-06  .118843750118D+01  .651925802231D-07
     .932736295685D+00  .212156250000D+03 -.197508460748D+01 -.886465496275D-08
    -.438232539859D-09  .100000000000D+01  .182100000000D+04  .000000000000D+00
     .240000000000D+01  .000000000000D+00 -.116415321827D-07  .210000000000D+02
     .864060000000D+05  .400000000000D+01
22 14 12  1  2  0  0.0  .292326789349D-03  .375166564481D-11  .000000000000D+00
     .100000000000D+02  .484062500000D+02  .527593404954D-08 -.598694952219D+00
     .254996120930D-05  .731119618285D-02  .113695859909D-04  .515372121429D+04
     .936000000000D+05 -.223517417908D-07  .223443103471D+01  .141561031342D-06
     .923085189586D+00  .141812500000D+03 -.206428512304D+01 -.850999733269D-08
     .910752222200D-10  .100000000000D+01  .182100000000D+04  .000000000000D+00
     .240000000000D+01  .000000000000D+00 -.176951289177D-07  .100000000000D+02
     .864060000000D+05  .400000000000D+01
23 14 12  1  2  0  0.0 -.712056644261D-04 -.272848410532D-11  .000000000000D+00
     .920000000000D+02  .731562500000D+02  .506378235543D-08 -.286005648598D+01
     .368244946003D-05  .968563626520D-02  .538304448128D-05  .515369938087D+04
     .936000000000D+05 -.128522515297D-06 -.298157800406D+01 -.152736902237D-06
     .950351615582D+00  .273843750000D+03 -.271874087289D+01 -.835034782550D-08
     .210723063176D-09  .100000000000D+01  .182100000000D+04  .000000000000D+00
     .240000000000D+01  .000000000000D+00 -.200234353542D-07  .920000000000D+02
     .864060000000D+05  .400000000000D+01
24 14 12  1  2  0  0.0 -.393209047616D-04 -.568434188608D-12  .000000000000D+00
     .260000000000D+02 -.347500000000D+02  .480841457548D-08  .282880341218D+01
    -.178441405296D-05  .261099694762D-02  .604987144470D-05  .515369846725D+04
     .936000000000D+05 -.819563865662D-07 -.195456008773D+01  .931322574615D-08
     .955075540444D+00  .259187500000D+03  .206518369268D+00 -.828605943335D-08
    -.269296931584D-09  .100000000000D+01  .182100000000D+04  .000000000000D+00
     .240000000000D+01  .000000000000D+00  .279396772385D-08  .260000000000D+02
     .864060000000D+05  .400000000000D+01
25 14 12  1  2  0  0.0  .116867013276D-04 -.193267624127D-11  .000000000000D+00
     .860000000000D+02 -.615625000000D+01  .404623997071D-08  .751348714381D+00
    -.314787030220D-06  .383105291985D-02  .100340694189D-04  .515376420593D+04
     .936000000000D+05 -.391155481339D-07 -.895133288454D+00  .782310962677D-07
     .977496442365D+00  .193656250000D+03  .687480582749D+00 -.789997192268D-08
     .425017703693D-10  .100000000000D+01  .182100000000D+04  .000000000000D+00
     .240000000000D+01  .000000000000D+00  .512227416039D-08  .860000000000D+02
     .864060000000D+05  .400000000000D+01
26 14 12  1  2  0  0.0 -.141379889101D-03 -.131876731757D-10  .000000000000D+00
     .650000000000D+02  .585000000000D+02  .449340145392D-08 -.286036561958D+01
     .282004475594D-05  .213564523729D-01  .469014048576D-05  .515368487549D+04
     .936000000000D+05  .407919287682D-06 -.288914076616D+01 -.838190317154D-07
     .973447360150D+00  .292500000000D+03  .129836745620D+01 -.792175854447D-08
     .193579491934D-09  .100000000000D+01  .182100000000D+04  .000000000000D+00
     .240000000000D+01  .000000000000D+00 -.651925802231D-08  .650000000000D+02
     .864060000000D+05  .400000000000D+01
28 14 12  1  2  0  0.0  .402120873332D-03  .261479726760D-11  .000000000000D+00
     .160000000000D+02 -.834375000000D+01  .390051961516D-08 -.787602080205D+00
    -.325962901115D-06  .196425757604D-01  .102873891592D-04  .515368632507D+04
     .936000000000D+05 -.244006514549D-06 -.826368168751D+00  .171363353729D-06
     .988062132662D+00  .200562500000D+03 -.169604701617D+01 -.806997900416D-08
     .113576159474D-09  .100000000000D+01  .182100000000D+04  .000000000000D+00
     .240000000000D+01  .000000000000D+00 -.111758708954D-07  .160000000000D+02
     .864060000000D+05  .400000000000D+01
31 14 12  1  2  0  0.0  .328174326569D-03 -.682121026330D-12  .000000000000D+00
     .830000000000D+02 -.437500000000D+02  .433160900033D-08  .186888102811D+01
    -.204704701900D-05  .826068571769D-02  .654160976410D-05  .515368108368D+04
     .936000000000D+05  .150874257088D-06 -.190973434380D+01  .484287738800D-07
     .976690083382D+00  .257968750000D+03 -.608214442504D+00 -.807605068564D-08
    -.500020827875D-09  .100000000000D+01  .182100000000D+04  .000000000000D+00
     .240000000000D+01  .000000000000D+00 -.135041773319D-07  .830000000000D+02
     .864060000000D+05  .400000000000D+01
32 14 12  1  2  0  0.0 -.281396787614D-03  .898126018001D-11  .000000000000D+00
     .770000000000D+02  .486875000000D+02  .459840582777D-08  .237920280639D+01
     .254623591900D-05  .114011728438D-01  .120177865028D-04  .515361916924D+04
     .936000000000D+05 -.132247805595D-06  .233106014587D+01  .199303030968D-06
     .947267408301D+00  .137437500000D+03 -.229238092687D-01 -.802390565645D-08
     .882179603464D-10  .100000000000D+01  .182100000000D+04  .000000000000D+00
     .240000000000D+01  .000000000000D+00 -.325962901115D-08  .770000000000D+02
     .864060000000D+05  .400000000000D+01
